NORAD_CAT_ID,OBJECT_NAME,OBJECT_TYPE,EPOCH,MEAN_MOTION,ECCENTRICITY,INCLINATION,RA_OF_ASC_NODE,ARG_OF_PERICENTER,MEAN_ANOMALY,BSTAR,MEAN_MOTION_DOT,MEAN_MOTION_DDOT,TLE_LINE0,TLE_LINE1,TLE_LINE2,SEMIMAJOR_AXIS,PERIOD,APOGEE,PERIGEE,DECAYED
52485.0,STARLINK-3913,PAYLOAD,2023-03-29 12:11:00,15.08852794,0.0001182,53.2166,200.2912,89.6931,270.4197,8.517e-05,1.068e-05,0.0,0 STARLINK-3913,1 52485U 22049AL  23088.50764265  .00001068  00000-0  85170-4 0  9997,2 52485  53.2166 200.2912 0001182  89.6931 270.4197 15.08852794 49926,6917.841,95.437,540.524,538.889,0.0
52485.0,STARLINK-3913,PAYLOAD,2023-03-29 18:32:31,15.08873537,9.9e-05,53.2166,199.096,115.7914,244.3181,0.00041091,6.264e-05,0.0,0 STARLINK-3913,1 52485U 22049AL  23088.77258970  .00006264  00000-0  41091-3 0  9993,2 52485  53.2166 199.0960 0000990 115.7914 244.3181 15.08873537 50127,6917.778,95.435,540.328,538.958,0.0
52485.0,STARLINK-3913,PAYLOAD,2023-03-30 13:37:10,15.08847798,0.0001188,53.2173,195.531,95.7185,264.3942,0.00011044,1.471e-05,0.0,0 STARLINK-3913,1 52485U 22049AL  23089.56747904  .00001471  00000-0  11044-3 0  9991,2 52485  53.2173 195.5310 0001188  95.7185 264.3942 15.08847798 50242,6917.857,95.437,540.543,538.9,0.0
52485.0,STARLINK-3913,PAYLOAD,2023-03-30 18:23:19,15.08866112,0.0001269,53.2158,194.6398,83.9485,276.1651,0.00059448,9.193e-05,0.0,0 STARLINK-3913,1 52485U 22049AL  23089.76619475  .00009193  00000-0  59448-3 0  9993,2 52485  53.2158 194.6398 0001269  83.9485 276.1651 15.08866112 50275,6917.801,95.436,540.543,538.788,0.0
52485.0,STARLINK-3913,PAYLOAD,2023-03-31 16:38:43,15.08851691,0.0001525,53.2168,190.4724,97.5936,262.523,0.00077664,0.00012098,0.0,0 STARLINK-3913,1 52485U 22049AL  23090.69356179  .00012098  00000-0  77664-3 0  9994,2 52485  53.2168 190.4724 0001525  97.5936 262.5230 15.08851691 50414,6917.845,95.437,540.765,538.655,0.0
52485.0,STARLINK-3913,PAYLOAD,2023-03-31 18:14:06,15.08864514,0.0001546,53.2163,190.1765,114.9118,245.2035,0.0018017,0.00028522,0.0,0 STARLINK-3913,1 52485U 22049AL  23090.75979937  .00028522  00000-0  18017-2 0  9999,2 52485  53.2163 190.1765 0001546 114.9118 245.2035 15.08864514 50420,6917.805,95.436,540.74,538.601,0.0
52485.0,STARLINK-3913,PAYLOAD,2023-04-01 11:43:22,15.08835733,0.0001482,53.2166,186.9073,117.8564,242.2578,0.0013588,0.00021401,0.0,0 STARLINK-3913,1 52485U 22049AL  23091.48845005  .00021401  00000-0  13588-2 0  9995,2 52485  53.2166 186.9073 0001482 117.8564 242.2578 15.08835733 50536,6917.893,95.438,540.784,538.733,0.0
52485.0,STARLINK-3913,PAYLOAD,2023-04-01 18:04:54,15.0886314,0.0001628,53.2167,185.716,123.9988,236.1159,0.0024749,0.00039345,0.0,0 STARLINK-3913,1 52485U 22049AL  23091.75340685  .00039345  00000-0  24749-2 0  9996,2 52485  53.2167 185.7160 0001628 123.9988 236.1159 15.08863140 50575,6917.81,95.436,540.801,538.548,0.0
52485.0,STARLINK-3913,PAYLOAD,2023-04-02 06:47:59,15.08846848,0.0001693,53.217,183.3393,116.8869,243.2297,0.0025906,0.00041191,0.0,0 STARLINK-3913,1 52485U 22049AL  23092.28332983  .00041191  00000-0  25906-2 0  9995,2 52485  53.2170 183.3393 0001693 116.8869 243.2297 15.08846848 50659,6917.859,95.437,540.896,538.553,0.0
52485.0,STARLINK-3913,PAYLOAD,2023-04-02 13:09:31,15.0886464,0.0001347,53.2165,182.1509,116.572,243.5411,0.0018956,0.0003003,0.0,0 STARLINK-3913,1 52485U 22049AL  23092.54828472  .00030030  00000-0  18956-2 0  9994,2 52485  53.2165 182.1509 0001347 116.5720 243.5411 15.08864640 50536,6917.805,95.436,540.602,538.738,0.0
52485.0,STARLINK-3913,PAYLOAD,2023-04-02 14:44:54,15.08868999,0.000136,53.217,181.8532,114.2086,245.9049,0.0018598,0.00029458,0.0,0 STARLINK-3913,1 52485U 22049AL  23092.61452330  .00029458  00000-0  18598-2 0  9992,2 52485  53.2170 181.8532 0001360 114.2086 245.9049 15.08868999 50544,6917.792,95.436,540.598,538.716,0.0
52485.0,STARLINK-3913,PAYLOAD,2023-04-02 22:41:50,15.08843576,0.000137,53.2168,180.3672,129.1364,230.975,0.00018619,2.677e-05,0.0,0 STARLINK-3913,1 52485U 22049AL  23092.94572446  .00002677  00000-0  18619-3 0  9998,2 52485  53.2168 180.3672 0001370 129.1364 230.9750 15.08843576 50755,6917.869,95.437,540.682,538.787,0.0
52485.0,STARLINK-3913,PAYLOAD,2023-04-03 11:24:56,15.08829574,0.0001688,53.2172,177.9903,124.0346,236.0807,-0.00014242,-2.553e-05,0.0,0 STARLINK-3913,1 52485U 22049AL  23093.47565007 -.00002553  00000-0 -14242-3 0  9995,2 52485  53.2172 177.9903 0001688 124.0346 236.0807 15.08829574 50836,6917.912,95.438,540.945,538.61,0.0
52485.0,STARLINK-3913,PAYLOAD,2023-04-03 17:46:28,15.08846388,0.0001154,53.2163,176.7976,125.9711,234.1388,0.00040676,6.193e-05,0.0,0 STARLINK-3913,1 52485U 22049AL  23093.74060770  .00006193  00000-0  40676-3 0  9994,2 52485  53.2163 176.7976 0001154 125.9711 234.1388 15.08846388 50876,6917.861,95.437,540.524,538.928,0.0
52485.0,STARLINK-3913,PAYLOAD,2023-04-04 11:15:43,15.08841257,0.0001187,53.2161,173.5271,110.7852,249.3267,0.00046487,7.118e-05,0.0,0 STARLINK-3913,1 52485U 22049AL  23094.46925262  .00007118  00000-0  46487-3 0  9994,2 52485  53.2161 173.5271 0001187 110.7852 249.3267 15.08841257 50987,6917.877,95.437,540.563,538.92,0.0
52485.0,STARLINK-3913,PAYLOAD,2023-04-04 17:37:15,15.08853015,0.0001495,53.2162,172.3341,131.2113,228.9009,0.00076832,0.00011965,0.0,0 STARLINK-3913,1 52485U 22049AL  23094.73420842  .00011965  00000-0  76832-3 0  9990,2 52485  53.2162 172.3341 0001495 131.2113 228.9009 15.08853015 50862,6917.841,95.437,540.74,538.671,0.0
52485.0,STARLINK-3913,PAYLOAD,2023-04-05 04:44:57,15.08835172,9.82e-05,53.2168,170.2539,125.5413,234.5671,0.00024799,3.661e-05,0.0,0 STARLINK-3913,1 52485U 22049AL  23095.19789205  .00003661  00000-0  24799-3 0  9991,2 52485  53.2168 170.2539 0000982 125.5413 234.5671 15.08835172 51091,6917.895,95.438,540.439,539.081,0.0
52485.0,STARLINK-3913,PAYLOAD,2023-04-05 12:41:53,15.08852484,0.0001076,53.2155,168.7687,103.61,256.5012,0.0017709,0.00028018,0.0,0 STARLINK-3913,1 52485U 22049AL  23095.52909231  .00028018  00000-0  17709-2 0  9996,2 52485  53.2155 168.7687 0001076 103.6100 256.5012 15.08852484 50983,6917.842,95.437,540.452,538.963,0.0
52485.0,STARLINK-3913,PAYLOAD,2023-04-05 15:52:39,15.08859063,0.000108,53.2157,168.1741,103.3997,256.7116,0.0016871,0.00026678,0.0,0 STARLINK-3913,1 52485U 22049AL  23095.66157080  .00026678  00000-0  16871-2 0  9997,2 52485  53.2157 168.1741 0001080 103.3997 256.7116 15.08859063 51007,6917.822,95.436,540.434,538.94,0.0
52485.0,STARLINK-3913,PAYLOAD,2023-04-06 09:21:54,15.08844944,0.0001197,53.2168,164.9016,102.4457,257.6669,0.00080077,0.00012481,0.0,0 STARLINK-3913,1 52485U 22049AL  23096.39021426  .00012481  00000-0  80077-3 0  9999,2 52485  53.2168 164.9016 0001197 102.4457 257.6669 15.08844944 51272,6917.865,95.437,540.558,538.902,0.0
52485.0,STARLINK-3913,PAYLOAD,2023-04-06 10:57:17,15.0884606,0.0001155,53.2164,164.6064,85.3655,274.7469,0.00084803,0.00013236,0.0,0 STARLINK-3913,1 52485U 22049AL  23096.45645498  .00013236  00000-0  84803-3 0  9997,2 52485  53.2164 164.6064 0001155  85.3655 274.7469 15.08846060 51124,6917.862,95.437,540.526,538.928,0.0
52485.0,STARLINK-3913,PAYLOAD,2023-04-06 22:05:00,15.08830721,0.0001751,53.2144,162.5297,48.3682,311.746,0.00027773,4.134e-05,0.0,0 STARLINK-3913,1 52485U 22049AL  23096.92014279  .00004134  00000-0  27773-3 0  9996,2 52485  53.2144 162.5297 0001751  48.3682 311.7460 15.08830721 51353,6917.909,95.438,540.985,538.562,0.0
52485.0,STARLINK-3913,PAYLOAD,2023-04-07 10:48:05,15.08847713,0.0001066,53.2158,160.1451,68.4315,291.679,0.00074933,0.0001166,0.0,0 STARLINK-3913,1 52485U 22049AL  23097.45006015  .00011660  00000-0  74933-3 0  9996,2 52485  53.2158 160.1451 0001066  68.4315 291.6790 15.08847713 51271,6917.857,95.437,540.459,538.984,0.0
52485.0,STARLINK-3913,PAYLOAD,2023-04-07 13:58:51,15.08854968,0.0001099,53.2158,159.5505,69.7444,290.3666,0.0010359,0.00016244,0.0,0 STARLINK-3913,1 52485U 22049AL  23097.58253895  .00016244  00000-0  10359-2 0  9994,2 52485  53.2158 159.5505 0001099  69.7444 290.3666 15.08854968 51454,6917.835,95.437,540.46,538.939,0.0
52485.0,STARLINK-3913,PAYLOAD,2023-04-08 04:17:19,15.08854998,0.0001308,53.2153,156.876,57.948,302.1639,0.00056517,8.722e-05,0.0,0 STARLINK-3913,1 52485U 22049AL  23098.17869676  .00008722  00000-0  56517-3 0  9999,2 52485  53.2153 156.8760 0001308  57.9480 302.1639 15.08854998 51549,6917.835,95.437,540.604,538.795,0.0
52485.0,STARLINK-3913,PAYLOAD,2023-04-08 10:38:51,15.08858476,0.0001268,53.2153,155.6859,59.7166,300.3951,0.00049917,7.669e-05,0.0,0 STARLINK-3913,1 52485U 22049AL  23098.44365333  .00007669  00000-0  49917-3 0  9995,2 52485  53.2153 155.6859 0001268  59.7166 300.3951 15.08858476 51420,6917.824,95.436,540.566,538.812,0.0
52485.0,STARLINK-3913,PAYLOAD,2023-04-08 20:11:10,15.08840211,9.39e-05,53.2151,153.9048,116.1993,243.9095,-0.00029274,-4.944e-05,0.0,0 STARLINK-3913,1 52485U 22049AL  23098.84109134 -.00004944  00000-0 -29274-3 0  9993,2 52485  53.2151 153.9048 0000939 116.1993 243.9095 15.08840211 51642,6917.88,95.438,540.394,539.095,0.0
52485.0,STARLINK-3913,PAYLOAD,2023-04-09 10:29:38,15.08839134,0.000118,53.2166,151.2255,91.2952,268.8175,-4.094e-05,-9.39e-06,0.0,0 STARLINK-3913,1 52485U 22049AL  23099.43725460 -.00000939  00000-0 -40940-4 0  9999,2 52485  53.2166 151.2255 0001180  91.2952 268.8175 15.08839134 51575,6917.883,95.438,540.564,538.932,0.0
52485.0,STARLINK-3913,PAYLOAD,2023-04-09 20:01:57,15.08838401,0.0001214,53.2161,149.44,90.0343,270.0788,1.5122e-06,-2.64e-06,0.0,0 STARLINK-3913,1 52485U 22049AL  23099.83469569 -.00000264  00000-0  15122-5 0  9993,2 52485  53.2161 149.4400 0001214  90.0343 270.0788 15.08838401 51638,6917.885,95.438,540.59,538.91,0.0
52485.0,STARLINK-3913,PAYLOAD,2023-04-10 07:09:39,15.08845149,0.0001101,53.2157,147.3571,89.7253,270.3865,0.00021525,3.14e-05,0.0,0 STARLINK-3913,1 52485U 22049AL  23100.29837411  .00003140  00000-0  21525-3 0  9998,2 52485  53.2157 147.3571 0001101  89.7253 270.3865 15.08845149 51703,6917.865,95.437,540.491,538.968,0.0
